NORAD_CAT_ID,OBJECT_NAME,OBJECT_TYPE,EPOCH,MEAN_MOTION,ECCENTRICITY,INCLINATION,RA_OF_ASC_NODE,ARG_OF_PERICENTER,MEAN_ANOMALY,BSTAR,MEAN_MOTION_DOT,MEAN_MOTION_DDOT,TLE_LINE0,TLE_LINE1,TLE_LINE2,SEMIMAJOR_AXIS,PERIOD,APOGEE,PERIGEE,DECAYED
51798.0,STARLINK-3634,PAYLOAD,2024-01-24 22:26:17,15.08841432,0.0001333,53.2139,227.1312,91.9091,268.2053,0.00011764,1.585e-05,0.0,0 STARLINK-3634,1 51798U 22017AG  24024.93492959  .00001585  00000-0  11764-3 0  9995,2 51798  53.2139 227.1312 0001333  91.9091 268.2053 15.08841432107002,6917.876,95.437,540.663,538.819,0.0
51798.0,STARLINK-3634,PAYLOAD,2024-01-25 20:41:41,15.08843569,0.0001312,53.2138,222.9682,91.3209,268.7933,8.4547e-05,1.058e-05,0.0,0 STARLINK-3634,1 51798U 22017AG  24025.86229016  .00001058  00000-0  84547-4 0  9995,2 51798  53.2138 222.9682 0001312  91.3209 268.7933 15.08843569107146,6917.869,95.437,540.642,538.827,0.0
51798.0,STARLINK-3634,PAYLOAD,2024-01-27 12:26:20,15.08839421,0.0001399,53.2127,215.5375,69.2926,290.8216,0.00028554,4.259e-05,0.0,0 STARLINK-3634,1 51798U 22017AG  24027.51829405  .00004259  00000-0  28554-3 0  9998,2 51798  53.2127 215.5375 0001399  69.2926 290.8216 15.08839421107395,6917.882,95.438,540.715,538.779,0.0
51798.0,STARLINK-3634,PAYLOAD,2024-01-27 18:47:53,15.08838481,0.0001264,53.2136,214.3435,85.5144,274.5993,5.0574e-05,5.17e-06,0.0,0 STARLINK-3634,1 51798U 22017AG  24027.78325440  .00000517  00000-0  50574-4 0  9998,2 51798  53.2136 214.3435 0001264  85.5144 274.5993 15.08838481107434,6917.885,95.438,540.624,538.876,0.0
51798.0,STARLINK-3634,PAYLOAD,2024-01-28 12:17:07,15.08852681,0.0001326,53.2145,211.0715,85.5947,274.5196,-0.00020782,-3.595e-05,0.0,0 STARLINK-3634,1 51798U 22017AG  24028.51188918 -.00003595  00000-0 -20782-3 0  9995,2 51798  53.2145 211.0715 0001326  85.5947 274.5196 15.08852681107544,6917.842,95.437,540.624,538.789,0.0
51798.0,STARLINK-3634,PAYLOAD,2024-01-28 18:38:39,15.0884816,0.0001328,53.215,209.8837,75.9704,284.1435,8.7973e-05,1.113e-05,0.0,0 STARLINK-3634,1 51798U 22017AG  24028.77685039  .00001113  00000-0  87973-4 0  9997,2 51798  53.2150 209.8837 0001328  75.9704 284.1435 15.08848160107580,6917.855,95.437,540.639,538.802,0.0
51798.0,STARLINK-3634,PAYLOAD,2024-01-29 12:07:54,15.08843497,0.0001451,53.2153,206.6137,69.3906,290.7241,0.00017481,2.495e-05,0.0,0 STARLINK-3634,1 51798U 22017AG  24029.50549268  .00002495  00000-0  17481-3 0  9992,2 51798  53.2153 206.6137 0001451  69.3906 290.7241 15.08843497107697,6917.87,95.437,540.738,538.731,0.0
51798.0,STARLINK-3634,PAYLOAD,2024-01-29 21:40:13,15.08845517,0.0001468,53.2155,204.8296,71.2895,288.8257,0.0001624,2.298e-05,0.0,0 STARLINK-3634,1 51798U 22017AG  24029.90293056  .00002298  00000-0  16240-3 0  9990,2 51798  53.2155 204.8296 0001468  71.2895 288.8257 15.08845517107759,6917.864,95.437,540.744,538.713,0.0
51798.0,STARLINK-3634,PAYLOAD,2024-01-30 11:58:41,15.08840297,0.0001559,53.2141,202.1511,77.9125,282.2042,1.2284e-05,-9.3e-07,0.0,0 STARLINK-3634,1 51798U 22017AG  24030.49909270 -.00000093  00000-0  12284-4 0  9995,2 51798  53.2141 202.1511 0001559  77.9125 282.2042 15.08840297107845,6917.879,95.438,540.823,538.666,0.0
51798.0,STARLINK-3634,PAYLOAD,2024-01-30 18:20:14,15.08841601,0.000137,53.2162,200.9606,86.5012,273.6137,2.3958e-05,9.3e-07,0.0,0 STARLINK-3634,1 51798U 22017AG  24030.76405325  .00000093  00000-0  23958-4 0  9996,2 51798  53.2162 200.9606 0001370  86.5012 273.6137 15.08841601107884,6917.875,95.437,540.688,538.793,0.0
51798.0,STARLINK-3634,PAYLOAD,2024-01-31 11:49:28,15.08836036,0.0001405,53.2165,197.6872,94.5426,265.5727,3.9157e-05,3.35e-06,0.0,0 STARLINK-3634,1 51798U 22017AG  24031.49269660  .00000335  00000-0  39157-4 0  9994,2 51798  53.2165 197.6872 0001405  94.5426 265.5727 15.08836036107994,6917.893,95.438,540.729,538.786,0.0
51798.0,STARLINK-3634,PAYLOAD,2024-01-31 21:21:47,15.08836393,0.0001414,53.2166,195.9032,94.8818,265.2336,3.4948e-05,2.68e-06,0.0,0 STARLINK-3634,1 51798U 22017AG  24031.89013731  .00000268  00000-0  34948-4 0  9992,2 51798  53.2166 195.9032 0001414  94.8818 265.2336 15.08836393108059,6917.891,95.438,540.735,538.778,0.0
51798.0,STARLINK-3634,PAYLOAD,2024-02-01 10:04:53,15.08833698,0.0001435,53.2167,193.5266,100.3992,259.7162,4.9931e-05,5.07e-06,0.0,0 STARLINK-3634,1 51798U 22017AG  24032.42005987  .00000507  00000-0  49931-4 0  9990,2 51798  53.2167 193.5266 0001435 100.3992 259.7162 15.08833698108131,6917.9,95.438,540.757,538.772,0.0
51798.0,STARLINK-3634,PAYLOAD,2024-02-01 16:26:25,15.08837607,0.0001462,53.2171,192.3387,102.4352,257.6804,6.3953e-05,7.3e-06,0.0,0 STARLINK-3634,1 51798U 22017AG  24032.68501763  .00000730  00000-0  63953-4 0  9999,2 51798  53.2171 192.3387 0001462 102.4352 257.6804 15.08837607108178,6917.888,95.438,540.764,538.741,0.0
51798.0,STARLINK-3634,PAYLOAD,2024-02-02 14:41:49,15.08841358,0.0001673,53.2182,188.1757,102.5138,257.6042,9.5816e-05,1.237e-05,0.0,0 STARLINK-3634,1 51798U 22017AG  24033.61237623  .00001237  00000-0  95816-4 0  9990,2 51798  53.2182 188.1757 0001673 102.5138 257.6042 15.08841358108319,6917.876,95.437,540.899,538.584,0.0
51798.0,STARLINK-3634,PAYLOAD,2024-02-02 19:27:58,15.08844333,0.0001329,53.2163,187.2833,92.0226,268.0918,0.00010328,1.356e-05,0.0,0 STARLINK-3634,1 51798U 22017AG  24033.81109406  .00001356  00000-0  10328-3 0  9995,2 51798  53.2163 187.2833 0001329  92.0226 268.0918 15.08844333108349,6917.867,95.437,540.652,538.813,0.0
51798.0,STARLINK-3634,PAYLOAD,2024-02-03 16:07:59,15.08840099,0.0001482,53.2171,183.4177,82.3122,277.8038,4.8788e-05,4.89e-06,0.0,0 STARLINK-3634,1 51798U 22017AG  24034.67222008  .00000489  00000-0  48788-4 0  9992,2 51798  53.2171 183.4177 0001482  82.3122 277.8038 15.08840099108474,6917.88,95.438,540.77,538.72,0.0
51798.0,STARLINK-3634,PAYLOAD,2024-02-04 14:23:23,15.0884658,0.000143,53.2172,179.255,91.4136,268.702,7.5311e-05,9.11e-06,0.0,0 STARLINK-3634,1 51798U 22017AG  24035.59957369  .00000911  00000-0  75311-4 0  9991,2 51798  53.2172 179.2550 0001430  91.4136 268.7020 15.08846580108619,6917.86,95.437,540.715,538.736,0.0
51798.0,STARLINK-3634,PAYLOAD,2024-02-04 19:09:32,15.08851129,0.0001505,53.2176,178.3613,102.5475,257.5686,9.7754e-05,1.269e-05,0.0,0 STARLINK-3634,1 51798U 22017AG  24035.79828894  .00001269  00000-0  97754-4 0  9995,2 51798  53.2176 178.3613 0001505 102.5475 257.5686 15.08851129108648,6917.846,95.437,540.753,538.67,0.0
51798.0,STARLINK-3634,PAYLOAD,2024-02-05 14:14:10,15.08841629,0.000144,53.2173,174.7879,110.7161,249.3985,2.2763e-06,-2.52e-06,0.0,0 STARLINK-3634,1 51798U 22017AG  24036.59317707 -.00000252  00000-0  22763-5 0  9991,2 51798  53.2173 174.7879 0001440 110.7161 249.3985 15.08841629108768,6917.875,95.437,540.737,538.744,0.0
51798.0,STARLINK-3634,PAYLOAD,2024-02-05 15:49:33,15.08838936,0.0001436,53.2171,174.498,91.7225,268.3932,3.577e-05,2.81e-06,0.0,0 STARLINK-3634,1 51798U 22017AG  24036.65941975  .00000281  00000-0  35770-4 0  9990,2 51798  53.2171 174.4980 0001436  91.7225 268.3932 15.08838936108771,6917.884,95.438,540.742,538.755,0.0
51798.0,STARLINK-3634,PAYLOAD,2024-02-06 14:04:57,15.0884362,0.0001442,53.2171,170.3346,91.5825,268.5332,5.6306e-05,6.08e-06,0.0,0 STARLINK-3634,1 51798U 22017AG  24037.58677702  .00000608  00000-0  56306-4 0  9998,2 51798  53.2171 170.3346 0001442  91.5825 268.5332 15.08843620108911,6917.869,95.437,540.732,538.737,0.0
51798.0,STARLINK-3634,PAYLOAD,2024-02-06 15:40:20,15.08848917,0.0001381,53.217,170.0334,99.6001,260.5147,3.6959e-05,3e-06,0.0,0 STARLINK-3634,1 51798U 22017AG  24037.65301345  .00000300  00000-0  36959-4 0  9994,2 51798  53.2170 170.0334 0001381  99.6001 260.5147 15.08848917108922,6917.853,95.437,540.673,538.763,0.0
51798.0,STARLINK-3634,PAYLOAD,2024-02-07 12:20:21,15.08837435,0.0001459,53.2178,166.1745,100.7086,259.407,8.1024e-05,1.002e-05,0.0,0 STARLINK-3634,1 51798U 22017AG  24038.51414250  .00001002  00000-0  81024-4 0  9993,2 51798  53.2178 166.1745 0001459 100.7086 259.4070 15.08837435109055,6917.888,95.438,540.763,538.744,0.0
51798.0,STARLINK-3634,PAYLOAD,2024-02-07 13:55:44,15.08838984,0.0001482,53.2178,165.8767,100.2608,259.8552,9.4556e-05,1.217e-05,0.0,0 STARLINK-3634,1 51798U 22017AG  24038.58038159  .00001217  00000-0  94556-4 0  9992,2 51798  53.2178 165.8767 0001482 100.2608 259.8552 15.08838984109066,6917.883,95.438,540.774,538.723,0.0
51798.0,STARLINK-3634,PAYLOAD,2024-02-07 15:31:07,15.08840717,0.0001521,53.2179,165.5801,107.3585,252.7573,0.00010418,1.37e-05,0.0,0 STARLINK-3634,1 51798U 22017AG  24038.64662009  .00001370  00000-0  10418-3 0  9990,2 51798  53.2179 165.5801 0001521 107.3585 252.7573 15.08840717109072,6917.878,95.438,540.795,538.691,0.0
51798.0,STARLINK-3634,PAYLOAD,2024-02-08 12:11:10,15.08828842,0.0001516,53.2178,161.7146,101.942,258.1743,-4.0114e-05,-9.26e-06,0.0,0 STARLINK-3634,1 51798U 22017AG  24039.50775600 -.00000926  00000-0 -40114-4 0  9993,2 51798  53.2178 161.7146 0001516 101.9420 258.1743 15.08828842109202,6917.914,95.438,540.828,538.731,0.0
51798.0,STARLINK-3634,PAYLOAD,2024-02-08 13:46:33,15.08829465,0.000147,53.2177,161.4171,97.5863,262.5296,-3.6045e-05,-8.61e-06,0.0,0 STARLINK-3634,1 51798U 22017AG  24039.57399591 -.00000861  00000-0 -36045-4 0  9997,2 51798  53.2177 161.4171 0001470  97.5863 262.5296 15.08829465109211,6917.913,95.438,540.795,538.761,0.0
51798.0,STARLINK-3634,PAYLOAD,2024-02-08 15:21:55,15.08836269,0.000137,53.2172,161.1171,88.1536,271.9613,2.039e-05,3.7e-07,0.0,0 STARLINK-3634,1 51798U 22017AG  24039.64023046  .00000037  00000-0  20390-4 0  9993,2 51798  53.2172 161.1171 0001370  88.1536 271.9613 15.08836269109223,6917.892,95.438,540.705,538.809,0.0
51798.0,STARLINK-3634,PAYLOAD,2024-02-09 12:01:56,15.08846648,0.0001374,53.2172,157.2513,95.0013,265.1136,0.00011433,1.532e-05,0.0,0 STARLINK-3634,1 51798U 22017AG  24040.50134349  .00001532  00000-0  11433-3 0  9997,2 51798  53.2172 157.2513 0001374  95.0013 265.1136 15.08846648109351,6917.86,95.437,540.676,538.775,0.0
